[{"OBJECT_NAME":"SHIYAN-24C 02","OBJECT_ID":"2023-206B","EPOCH":"2026-03-09T21:24:07.715808","MEAN_MOTION":14.97980163,"ECCENTRICITY":0.0003465,"INCLINATION":97.3985,"RA_OF_ASC_NODE":41.8071,"ARG_OF_PERICENTER":80.6641,"MEAN_ANOMALY":279.4974,"EPHEMERIS_TYPE":0,"CLASSIFICATION_TYPE":"U","NORAD_CAT_ID":58651,"ELEMENT_SET_NO":999,"REV_AT_EPOCH":12044,"BSTAR":0.00023935,"MEAN_MOTION_DOT":2.77e-5,"MEAN_MOTION_DDOT":0},{"OBJECT_NAME":"STARLINK-35660","OBJECT_ID":"2025-293A","EPOCH":"2026-03-09T11:52:20.599968","MEAN_MOTION":14.98333771,"ECCENTRICITY":0.0003498,"INCLINATION":70.0002,"RA_OF_ASC_NODE":95.1494,"ARG_OF_PERICENTER":266.2084,"MEAN_ANOMALY":93.8675,"EPHEMERIS_TYPE":0,"CLASSIFICATION_TYPE":"U","NORAD_CAT_ID":67003,"ELEMENT_SET_NO":999,"REV_AT_EPOCH":1485,"BSTAR":0.00016551184,"MEAN_MOTION_DOT":1.883e-5,"MEAN_MOTION_DDOT":0}]
